CCSDS_OMM_VERS = 2.0
CREATION_DATE  = 
ORIGINATOR     = 

OBJECT_NAME    = COSMOS 2058
OBJECT_ID      = 1990-010A
CENTER_NAME    = EARTH
REF_FRAME      = TEME
TIME_SYSTEM    = UTC
MEAN_ELEMENT_THEORY = SGP/SGP4

EPOCH          = 2026-03-17T22:10:38.652672
MEAN_MOTION    = 15.11394171
ECCENTRICITY   = .00082275
INCLINATION    = 82.4669
RA_OF_ASC_NODE = 39.3131
ARG_OF_PERICENTER = 315.9758
MEAN_ANOMALY   = 44.0816

EPHEMERIS_TYPE = 0
CLASSIFICATION_TYPE = U
NORAD_CAT_ID   = 20465
ELEMENT_SET_NO = 999
REV_AT_EPOCH   = 94348
BSTAR          = .18525387E-3
MEAN_MOTION_DOT = .3157E-4
MEAN_MOTION_DDOT = 0

CCSDS_OMM_VERS = 2.0
CREATION_DATE  = 
ORIGINATOR     = 

OBJECT_NAME    = SL-14 R/B
OBJECT_ID      = 1990-010B
CENTER_NAME    = EARTH
REF_FRAME      = TEME
TIME_SYSTEM    = UTC
MEAN_ELEMENT_THEORY = SGP/SGP4

EPOCH          = 2026-03-17T21:58:07.267296
MEAN_MOTION    = 14.83576216
ECCENTRICITY   = .001832
INCLINATION    = 82.4987
RA_OF_ASC_NODE = 259.6596
ARG_OF_PERICENTER = 273.0939
MEAN_ANOMALY   = 86.8180

EPHEMERIS_TYPE = 0
CLASSIFICATION_TYPE = U
NORAD_CAT_ID   = 20466
ELEMENT_SET_NO = 999
REV_AT_EPOCH   = 92970
BSTAR          = .47390526E-4
MEAN_MOTION_DOT = .415E-5
MEAN_MOTION_DDOT = 0

CCSDS_OMM_VERS = 2.0
CREATION_DATE  = 
ORIGINATOR     = 

OBJECT_NAME    = SL-14 R/B
OBJECT_ID      = 1990-018B
CENTER_NAME    = EARTH
REF_FRAME      = TEME
TIME_SYSTEM    = UTC
MEAN_ELEMENT_THEORY = SGP/SGP4

EPOCH          = 2026-03-17T20:57:58.385952
MEAN_MOTION    = 14.82153577
ECCENTRICITY   = .00175201
INCLINATION    = 82.5218
RA_OF_ASC_NODE = 215.4407
ARG_OF_PERICENTER = 67.2365
MEAN_ANOMALY   = 293.0698

EPHEMERIS_TYPE = 0
CLASSIFICATION_TYPE = U
NORAD_CAT_ID   = 20511
ELEMENT_SET_NO = 999
REV_AT_EPOCH   = 92379
BSTAR          = .51247286E-4
MEAN_MOTION_DOT = .433E-5
MEAN_MOTION_DDOT = 0

CCSDS_OMM_VERS = 2.0
CREATION_DATE  = 
ORIGINATOR     = 

OBJECT_NAME    = HST
OBJECT_ID      = 1990-037B
CENTER_NAME    = EARTH
REF_FRAME      = TEME
TIME_SYSTEM    = UTC
MEAN_ELEMENT_THEORY = SGP/SGP4

EPOCH          = 2026-03-17T20:06:11.714112
MEAN_MOTION    = 15.29612827
ECCENTRICITY   = .00016526
INCLINATION    = 28.4724
RA_OF_ASC_NODE = 344.4119
ARG_OF_PERICENTER = 210.6835
MEAN_ANOMALY   = 149.3665

EPHEMERIS_TYPE = 0
CLASSIFICATION_TYPE = U
NORAD_CAT_ID   = 20580
ELEMENT_SET_NO = 999
REV_AT_EPOCH   = 77456
BSTAR          = .19602722E-3
MEAN_MOTION_DOT = .6018E-4
MEAN_MOTION_DDOT = 0

CCSDS_OMM_VERS = 2.0
CREATION_DATE  = 
ORIGINATOR     = 

OBJECT_NAME    = SL-16 R/B
OBJECT_ID      = 1990-046B
CENTER_NAME    = EARTH
REF_FRAME      = TEME
TIME_SYSTEM    = UTC
MEAN_ELEMENT_THEORY = SGP/SGP4

EPOCH          = 2026-03-17T21:32:19.597920
MEAN_MOTION    = 14.15011139
ECCENTRICITY   = .00161361
INCLINATION    = 70.9970
RA_OF_ASC_NODE = 280.6754
ARG_OF_PERICENTER = 288.6989
MEAN_ANOMALY   = 71.2382

EPHEMERIS_TYPE = 0
CLASSIFICATION_TYPE = U
NORAD_CAT_ID   = 20625
ELEMENT_SET_NO = 999
REV_AT_EPOCH   = 84955
BSTAR          = .50690782E-4
MEAN_MOTION_DOT = .5E-6
MEAN_MOTION_DDOT = 0

CCSDS_OMM_VERS = 2.0
CREATION_DATE  = 
ORIGINATOR     = 

OBJECT_NAME    = COSMOS 2084
OBJECT_ID      = 1990-055A
CENTER_NAME    = EARTH
REF_FRAME      = TEME
TIME_SYSTEM    = UTC
MEAN_ELEMENT_THEORY = SGP/SGP4

EPOCH          = 2026-03-17T22:58:23.178144
MEAN_MOTION    = 15.05696347
ECCENTRICITY   = .00157808
INCLINATION    = 62.7906
RA_OF_ASC_NODE = 307.3804
ARG_OF_PERICENTER = 192.2663
MEAN_ANOMALY   = 167.8056

EPHEMERIS_TYPE = 0
CLASSIFICATION_TYPE = U
NORAD_CAT_ID   = 20663
ELEMENT_SET_NO = 999
REV_AT_EPOCH   = 93756
BSTAR          = .13093538E-3
MEAN_MOTION_DOT = .1703E-4
MEAN_MOTION_DDOT = 0

CCSDS_OMM_VERS = 2.0
CREATION_DATE  = 
ORIGINATOR     = 

OBJECT_NAME    = SL-6 R/B(2)
OBJECT_ID      = 1990-055D
CENTER_NAME    = EARTH
REF_FRAME      = TEME
TIME_SYSTEM    = UTC
MEAN_ELEMENT_THEORY = SGP/SGP4

EPOCH          = 2026-03-17T16:26:38.299200
MEAN_MOTION    = 15.03634254
ECCENTRICITY   = .00260799
INCLINATION    = 62.7823
RA_OF_ASC_NODE = 226.6587
ARG_OF_PERICENTER = 348.9777
MEAN_ANOMALY   = 11.0748

EPHEMERIS_TYPE = 0
CLASSIFICATION_TYPE = U
NORAD_CAT_ID   = 20666
ELEMENT_SET_NO = 999
REV_AT_EPOCH   = 93939
BSTAR          = .14396602E-3
MEAN_MOTION_DOT = .1791E-4
MEAN_MOTION_DDOT = 0

CCSDS_OMM_VERS = 2.0
CREATION_DATE  = 
ORIGINATOR     = 

OBJECT_NAME    = SL-8 R/B
OBJECT_ID      = 1990-078B
CENTER_NAME    = EARTH
REF_FRAME      = TEME
TIME_SYSTEM    = UTC
MEAN_ELEMENT_THEORY = SGP/SGP4

EPOCH          = 2026-03-17T21:46:12.329760
MEAN_MOTION    = 14.89331268
ECCENTRICITY   = .03604461
INCLINATION    = 82.9000
RA_OF_ASC_NODE = 243.9177
ARG_OF_PERICENTER = 346.3402
MEAN_ANOMALY   = 12.8249

EPHEMERIS_TYPE = 0
CLASSIFICATION_TYPE = U
NORAD_CAT_ID   = 20775
ELEMENT_SET_NO = 999
REV_AT_EPOCH   = 81052
BSTAR          = .30815051E-3
MEAN_MOTION_DOT = .10446E-3
MEAN_MOTION_DDOT = 0

CCSDS_OMM_VERS = 2.0
CREATION_DATE  = 
ORIGINATOR     = 

OBJECT_NAME    = SL-8 R/B
OBJECT_ID      = 1991-006B
CENTER_NAME    = EARTH
REF_FRAME      = TEME
TIME_SYSTEM    = UTC
MEAN_ELEMENT_THEORY = SGP/SGP4

EPOCH          = 2026-03-18T00:00:13.359168
MEAN_MOTION    = 13.77495370
ECCENTRICITY   = .00225727
INCLINATION    = 82.9459
RA_OF_ASC_NODE = 163.8679
ARG_OF_PERICENTER = 15.6453
MEAN_ANOMALY   = 157.5489

EPHEMERIS_TYPE = 0
CLASSIFICATION_TYPE = U
NORAD_CAT_ID   = 21088
ELEMENT_SET_NO = 999
REV_AT_EPOCH   = 76521
BSTAR          = .65423846E-4
MEAN_MOTION_DOT = .8E-6
MEAN_MOTION_DDOT = 0

CCSDS_OMM_VERS = 2.0
CREATION_DATE  = 
ORIGINATOR     = 

OBJECT_NAME    = OKEAN-3
OBJECT_ID      = 1991-039A
CENTER_NAME    = EARTH
REF_FRAME      = TEME
TIME_SYSTEM    = UTC
MEAN_ELEMENT_THEORY = SGP/SGP4

EPOCH          = 2026-03-17T15:47:57.779232
MEAN_MOTION    = 15.04862760
ECCENTRICITY   = .00131494
INCLINATION    = 82.5198
RA_OF_ASC_NODE = 329.1249
ARG_OF_PERICENTER = 307.4541
MEAN_ANOMALY   = 52.5489

EPHEMERIS_TYPE = 0
CLASSIFICATION_TYPE = U
NORAD_CAT_ID   = 21397
ELEMENT_SET_NO = 999
REV_AT_EPOCH   = 86623
BSTAR          = .15179104E-3
MEAN_MOTION_DOT = .2176E-4
MEAN_MOTION_DDOT = 0

CCSDS_OMM_VERS = 2.0
CREATION_DATE  = 
ORIGINATOR     = 

OBJECT_NAME    = COSMOS 2151
OBJECT_ID      = 1991-042A
CENTER_NAME    = EARTH
REF_FRAME      = TEME
TIME_SYSTEM    = UTC
MEAN_ELEMENT_THEORY = SGP/SGP4

EPOCH          = 2026-03-17T21:18:26.614656
MEAN_MOTION    = 15.00138705
ECCENTRICITY   = .00134723
INCLINATION    = 82.4931
RA_OF_ASC_NODE = 75.7653
ARG_OF_PERICENTER = 38.5378
MEAN_ANOMALY   = 321.6805

EPHEMERIS_TYPE = 0
CLASSIFICATION_TYPE = U
NORAD_CAT_ID   = 21422
ELEMENT_SET_NO = 999
REV_AT_EPOCH   = 86442
BSTAR          = .14992405E-3
MEAN_MOTION_DOT = .19E-4
MEAN_MOTION_DDOT = 0

CCSDS_OMM_VERS = 2.0
CREATION_DATE  = 
ORIGINATOR     = 

OBJECT_NAME    = SL-14 R/B
OBJECT_ID      = 1991-042B
CENTER_NAME    = EARTH
REF_FRAME      = TEME
TIME_SYSTEM    = UTC
MEAN_ELEMENT_THEORY = SGP/SGP4

EPOCH          = 2026-03-17T20:39:34.523136
MEAN_MOTION    = 14.81838107
ECCENTRICITY   = .00162884
INCLINATION    = 82.4938
RA_OF_ASC_NODE = 212.5205
ARG_OF_PERICENTER = 210.0281
MEAN_ANOMALY   = 150.0001

EPHEMERIS_TYPE = 0
CLASSIFICATION_TYPE = U
NORAD_CAT_ID   = 21423
ELEMENT_SET_NO = 999
REV_AT_EPOCH   = 85428
BSTAR          = .5232178E-4
MEAN_MOTION_DOT = .437E-5
MEAN_MOTION_DDOT = 0

