COSMOS 2058             
1 20465U 90010A   26076.92405848  .00003157  00000+0  18525-3 0  9997
2 20465  82.4669  39.3131 0008227 315.9758  44.0816 15.11394171943485
SL-14 R/B               
1 20466U 90010B   26076.91536189  .00000415  00000+0  47391-4 0  9998
2 20466  82.4987 259.6596 0018320 273.0939  86.8180 14.83576216929708
SL-14 R/B               
1 20511U 90018B   26076.87359243  .00000433  00000+0  51247-4 0  9991
2 20511  82.5218 215.4407 0017520  67.2365 293.0698 14.82153577923794
HST                     
1 20580U 90037B   26076.83763558  .00006018  00000+0  19603-3 0  9996
2 20580  28.4724 344.4119 0001652 210.6835 149.3665 15.29612827774565
SL-16 R/B               
1 20625U 90046B   26076.89744905  .00000050  00000+0  50691-4 0  9990
2 20625  70.9970 280.6754 0016136 288.6989  71.2382 14.15011139849558
COSMOS 2084             
1 20663U 90055A   26076.95721271  .00001703  00000+0  13094-3 0  9991
2 20663  62.7906 307.3804 0015780 192.2663 167.8056 15.05696347937563
SL-6 R/B(2)             
1 20666U 90055D   26076.68516550  .00001791  00000+0  14397-3 0  9990
2 20666  62.7823 226.6587 0026079 348.9777  11.0748 15.03634254939392
SL-8 R/B                
1 20775U 90078B   26076.90708715  .00010446  00000+0  30815-3 0  9997
2 20775  82.9000 243.9177 0360446 346.3402  12.8249 14.89331268810527
SL-8 R/B                
1 21088U 91006B   26077.00015462  .00000080  00000+0  65424-4 0  9997
2 21088  82.9459 163.8679 0022572  15.6453 157.5489 13.77495370765216
OKEAN-3                 
1 21397U 91039A   26076.65830763  .00002176  00000+0  15179-3 0  9994
2 21397  82.5198 329.1249 0013149 307.4541  52.5489 15.04862760866236
COSMOS 2151             
1 21422U 91042A   26076.88780804  .00001900  00000+0  14992-3 0  9998
2 21422  82.4931  75.7653 0013472  38.5378 321.6805 15.00138705864423
SL-14 R/B               
1 21423U 91042B   26076.86081624  .00000437  00000+0  52322-4 0  9995
2 21423  82.4938 212.5205 0016288 210.0281 150.0001 14.81838107854289
